{
  "norad_id": 68555,
  "name": "STARLINK-37146",
  "history": [
    {
      "epoch": "2026-04-09T20:00:01.999008Z",
      "apogee_km": 274.51917966951805,
      "perigee_km": 273.54131108444744,
      "latitude_deg": -37.35759949634209,
      "longitude_deg": 56.063757888271155,
      "height_km": 286.1362308227286,
      "semi_major_axis_km": 6652.1672453769825,
      "eccentricity": 7.35e-05,
      "inclination_deg": 53.1586,
      "raan_deg": 228.808,
      "arg_perigee_deg": 44.7952,
      "mean_anomaly_deg": 266.2316,
      "mean_motion_rev_day": 16.00140151
    }
  ]
}