STARLINK-37146          
1 68555U 26070P   26099.83335647 -.00909965  28054-3 -17147-2 0  9993
2 68555  53.1586 228.8080 0000735  44.7952 266.2316 16.00140151  2381
